{
"type": "FeatureCollection",
"name": "demo_boundary",
"crs": { "type": "name", "properties": { "name": "urn:ogc:def:crs:OGC:1.3:CRS84" } },
"features": [
{ "type": "Feature", "properties": { "name": "Demo study area" }, "geometry": { "type": "Polygon", "coordinates": [ [ [ -107.9, 51.6 ], [ -107.2, 51.4 ], [ -106.3, 51.5 ], [ -105.6, 51.9 ], [ -105.4, 52.5 ], [ -105.8, 53.1 ], [ -106.6, 53.4 ], [ -107.5, 53.2 ], [ -108.1, 52.6 ], [ -108.2, 52.0 ], [ -107.9, 51.6 ] ], [ [ -106.9, 52.4 ], [ -106.5, 52.4 ], [ -106.5, 52.7 ], [ -106.9, 52.7 ], [ -106.9, 52.4 ] ] ] } }
]
}
