{
"type": "FeatureCollection",
"name": "demo_regions",
"crs": { "type": "name", "properties": { "name": "urn:ogc:def:crs:OGC:1.3:CRS84" } },
"features": [
{ "type": "Feature", "properties": { "division": "Southwest Division", "code": "SW" }, "geometry": { "type": "Polygon", "coordinates": [ [ [ -106.75, 51.45 ], [ -107.2, 51.4 ], [ -107.9, 51.6 ], [ -108.2, 52.0 ], [ -108.125, 52.45 ], [ -106.9, 52.45 ], [ -106.9, 52.4 ], [ -106.75, 52.4 ], [ -106.75, 51.45 ] ] ] } },
{ "type": "Feature", "properties": { "division": "Southeast Division", "code": "SE" }, "geometry": { "type": "Polygon", "coordinates": [ [ [ -105.416666666666671, 52.45 ], [ -105.6, 51.9 ], [ -106.3, 51.5 ], [ -106.75, 51.45 ], [ -106.75, 52.4 ], [ -106.5, 52.4 ], [ -106.5, 52.45 ], [ -105.416666666666671, 52.45 ] ] ] } },
{ "type": "Feature", "properties": { "division": "Northwest Division", "code": "NW" }, "geometry": { "type": "Polygon", "coordinates": [ [ [ -108.125, 52.45 ], [ -108.1, 52.6 ], [ -107.5, 53.2 ], [ -106.75, 53.366666666666667 ], [ -106.75, 52.7 ], [ -106.9, 52.7 ], [ -106.9, 52.45 ], [ -108.125, 52.45 ] ] ] } },
{ "type": "Feature", "properties": { "division": "Northeast Division", "code": "NE" }, "geometry": { "type": "Polygon", "coordinates": [ [ [ -106.5, 52.45 ], [ -106.5, 52.7 ], [ -106.75, 52.7 ], [ -106.75, 53.366666666666667 ], [ -106.6, 53.4 ], [ -105.8, 53.1 ], [ -105.4, 52.5 ], [ -105.416666666666671, 52.45 ], [ -106.5, 52.45 ] ] ] } }
]
}
